STARLINK-30971          
1 58443U 23183G   26190.39761525 -.00000631  00000+0 -13408-4 0  9998
2 58443  43.0021  74.6460 0000862 303.4725  56.6044 15.27583498145347
STARLINK-30963          
1 58444U 23183H   26191.00521741 -.00000431  00000+0 -61329-5 0  9996
2 58444  43.0047  70.6036 0001674 256.0503 104.0163 15.27578030145447
STARLINK-30961          
1 58445U 23183J   26191.00909095  .00020199  00000+0  74338-3 0  9992
2 58445  43.0035  70.6349 0000931 278.0315  82.0431 15.27497300145445
STARLINK-30975          
1 58446U 23183K   26191.00778544  .00000678  00000+0  34164-4 0  9990
2 58446  43.0034  70.6141 0001095 274.8283  85.2443 15.27573619145463
STARLINK-30976          
1 58447U 23183L   26191.02064592 -.00000055  00000+0  75047-5 0  9990
2 58447  43.0072  70.7492 0000642 284.5767  75.5013 15.27575596145447
STARLINK-30926          
1 58448U 23183M   26190.92825184 -.00000878  00000+0 -22370-4 0  9995
2 58448  43.0051  70.8548 0001273 275.7211  84.3496 15.27593646145433
STARLINK-30943          
1 58449U 23183N   26191.29811146 -.00000607  00000+0 -12522-4 0  9998
2 58449  43.0056  43.3281 0001401 272.9803  87.0888 15.27576800145783
STARLINK-30946          
1 58450U 23183P   26191.08731176 -.00000500  00000+0 -86477-5 0  9994
2 58450  43.0033  70.3657 0001377 271.8933  88.1761 15.27574967145459
STARLINK-30928          
1 58452U 23183R   26191.01677668 -.00000268  00000+0 -21847-6 0  9996
2 58452  43.0009  70.6966 0001715 261.6614  98.4043 15.27581187145436
STARLINK-30957          
1 58453U 23183S   26191.07703416  .00000581  00000+0  30635-4 0  9993
2 58453  42.9961  70.2960 0001363   0.7011 359.3843 15.27586640145452
STARLINK-30966          
1 58454U 23183T   26190.95010511  .00003115  00000+0  12263-3 0  9999
2 58454  43.0040  71.0468 0000664 319.3431  40.7371 15.27592100145436
STARLINK-30935          
1 58455U 23183U   26190.91297491  .00001164  00000+0  51804-4 0  9997
2 58455  43.0040  71.6342 0002473 268.7913  91.2655 15.27588618145420
STARLINK-30958          
1 58457U 23183W   26191.06289852 -.00000725  00000+0 -16818-4 0  9998
2 58457  43.0096  70.1811 0000838 313.1439  46.9342 15.27579215145455
STARLINK-30977          
1 58459U 23183Y   26191.04762310  .00000221  00000+0  17556-4 0  9992
2 58459  43.0042  70.9203 0001203 269.3344  90.7370 15.27578525145445
SPIRIT                  
1 58468U 23185G   26190.75690874  .00334679  46525-4  82984-3 0  9996
2 58468  97.3233 277.5496 0005615 208.1552 151.9422 15.95875858146163
STARLINK-30947          
1 58473U 23186A   26191.08672342  .00001470  00000+0  62921-4 0  9993
2 58473  43.0091  95.9562 0000935 286.8077  73.2672 15.27581850144577
STARLINK-30941          
1 58475U 23186C   26191.08930297 -.00000604  00000+0 -12446-4 0  9998
2 58475  43.0022  95.9764 0000362 358.7303   1.3548 15.27575534144578
STARLINK-30980          
1 58476U 23186D   26191.09314804  .00013981  00000+0  51634-3 0  9991
2 58476  42.9992  96.0076 0000619 351.8089   8.2753 15.27597022144571
STARLINK-30965          
1 58477U 23186E   26191.06409125 -.00000460  00000+0 -71702-5 0  9990
2 58477  43.0109  81.0808 0002160 253.9735 106.0879 15.27580138144749
STARLINK-30990          
1 58478U 23186F   26190.10207178 -.00000143  00000+0  43283-5 0  9999
2 58478  43.0019 101.4710 0001236 270.2422  89.8288 15.27589584144462
STARLINK-30984          
1 58480U 23186H   26191.11406029 -.00001535  00000+0 -46278-4 0  9993
2 58480  43.0053  91.8938 0001145 272.6163  87.4557 15.27574192144624
STARLINK-30956          
1 58481U 23186J   26191.03724943  .00000077  00000+0  12313-4 0  9994
2 58481  43.0026  70.3258 0001417 268.8468  91.2222 15.27577116144866
STARLINK-30997          
1 58482U 23186K   26191.14745482  .00019292  00000+0  70856-3 0  9992
2 58482  42.9991  92.1166 0001978 263.5143  96.5483 15.27587697144626
