OBJECT_NAME,OBJECT_ID,EPOCH,MEAN_MOTION,ECCENTRICITY,INCLINATION,RA_OF_ASC_NODE,ARG_OF_PERICENTER,MEAN_ANOMALY,EPHEMERIS_TYPE,CLASSIFICATION_TYPE,NORAD_CAT_ID,ELEMENT_SET_NO,REV_AT_EPOCH,BSTAR,MEAN_MOTION_DOT,MEAN_MOTION_DDOT
STARLINK-30971,2023-183G,2026-07-09T09:32:33.957600,15.27583498,.00008621,43.0021,74.6460,303.4725,56.6044,0,U,58443,999,14534,-.13407809E-4,-.631E-5,0
STARLINK-30963,2023-183H,2026-07-10T00:07:30.784224,15.27578030,.00016747,43.0047,70.6036,256.0503,104.0163,0,U,58444,999,14544,-.6132928E-5,-.431E-5,0
STARLINK-30961,2023-183J,2026-07-10T00:13:05.458080,15.27497300,.00009319,43.0035,70.6349,278.0315,82.0431,0,U,58445,999,14544,.74338356E-3,.20199E-3,0
STARLINK-30975,2023-183K,2026-07-10T00:11:12.662016,15.27573619,.00010957,43.0034,70.6141,274.8283,85.2443,0,U,58446,999,14546,.34164257E-4,.678E-5,0
STARLINK-30976,2023-183L,2026-07-10T00:29:43.807488,15.27575596,.00006427,43.0072,70.7492,284.5767,75.5013,0,U,58447,999,14544,.7504713E-5,-.55E-6,0
STARLINK-30926,2023-183M,2026-07-09T22:16:40.958976,15.27593646,.00012734,43.0051,70.8548,275.7211,84.3496,0,U,58448,999,14543,-.2236976E-4,-.878E-5,0
STARLINK-30943,2023-183N,2026-07-10T07:09:16.830144,15.27576800,.00014019,43.0056,43.3281,272.9803,87.0888,0,U,58449,999,14578,-.12522293E-4,-.607E-5,0
STARLINK-30946,2023-183P,2026-07-10T02:05:43.736064,15.27574967,.0001377,43.0033,70.3657,271.8933,88.1761,0,U,58450,999,14545,-.8647734E-5,-.5E-5,0
STARLINK-30928,2023-183R,2026-07-10T00:24:09.505152,15.27581187,.00017153,43.0009,70.6966,261.6614,98.4043,0,U,58452,999,14543,-.218471E-6,-.268E-5,0
STARLINK-30957,2023-183S,2026-07-10T01:50:55.751424,15.27586640,.00013633,42.9961,70.2960,0.7011,359.3843,0,U,58453,999,14545,.30635432E-4,.581E-5,0
STARLINK-30966,2023-183T,2026-07-09T22:48:09.081504,15.27592100,.00006643,43.0040,71.0468,319.3431,40.7371,0,U,58454,999,14543,.12263405E-3,.3115E-4,0
STARLINK-30935,2023-183U,2026-07-09T21:54:41.032224,15.27588618,.00024733,43.0040,71.6342,268.7913,91.2655,0,U,58455,999,14542,.51803735E-4,.1164E-4,0
STARLINK-30958,2023-183W,2026-07-10T01:30:34.432128,15.27579215,.00008381,43.0096,70.1811,313.1439,46.9342,0,U,58457,999,14545,-.16818121E-4,-.725E-5,0
STARLINK-30977,2023-183Y,2026-07-10T01:08:34.635840,15.27578525,.0001203,43.0042,70.9203,269.3344,90.7370,0,U,58459,999,14544,.17556419E-4,.221E-5,0
SPIRIT,2023-185G,2026-07-09T18:09:56.915136,15.95875858,.00056155,97.3233,277.5496,208.1552,151.9422,0,U,58468,999,14616,.82984428E-3,.334679E-2,.46525037E-4
STARLINK-30947,2023-186A,2026-07-10T02:04:52.903488,15.27581850,.00009356,43.0091,95.9562,286.8077,73.2672,0,U,58473,999,14457,.62921221E-4,.147E-4,0
STARLINK-30941,2023-186C,2026-07-10T02:08:35.776608,15.27575534,.00003625,43.0022,95.9764,358.7303,1.3548,0,U,58475,999,14457,-.12446102E-4,-.604E-5,0
STARLINK-30980,2023-186D,2026-07-10T02:14:07.990656,15.27597022,.00006197,42.9992,96.0076,351.8089,8.2753,0,U,58476,999,14457,.51634158E-3,.13981E-3,0
STARLINK-30965,2023-186E,2026-07-10T01:32:17.484000,15.27580138,.00021604,43.0109,81.0808,253.9735,106.0879,0,U,58477,999,14474,-.7170239E-5,-.46E-5,0
STARLINK-30990,2023-186F,2026-07-09T02:26:59.001792,15.27589584,.00012361,43.0019,101.4710,270.2422,89.8288,0,U,58478,999,14446,.4328308E-5,-.143E-5,0
STARLINK-30984,2023-186H,2026-07-10T02:44:14.809056,15.27574192,.00011455,43.0053,91.8938,272.6163,87.4557,0,U,58480,999,14462,-.46278417E-4,-.1535E-4,0
STARLINK-30956,2023-186J,2026-07-10T00:53:38.350752,15.27577116,.00014172,43.0026,70.3258,268.8468,91.2222,0,U,58481,999,14486,.12312911E-4,.77E-6,0
STARLINK-30997,2023-186K,2026-07-10T03:32:20.096448,15.27587697,.00019781,42.9991,92.1166,263.5143,96.5483,0,U,58482,999,14462,.70855669E-3,.19292E-3,0
